HIMAWARI-8              
1 40267U 14060A   23197.08938378 -.00000276  00000+0  00000+0 0  9992
2 40267   0.0200 313.1741 0000504 150.8778   2.4288  1.00273492 32162
